[{"OBJECT_NAME":"STARLINK-2334","OBJECT_ID":"2021-018F","EPOCH":"2026-03-09T18:27:21.101472","MEAN_MOTION":15.0639831,"ECCENTRICITY":0.00012146,"INCLINATION":53.0558,"RA_OF_ASC_NODE":231.2619,"ARG_OF_PERICENTER":89.3801,"MEAN_ANOMALY":270.7327,"EPHEMERIS_TYPE":0,"CLASSIFICATION_TYPE":"U","NORAD_CAT_ID":47792,"ELEMENT_SET_NO":999,"REV_AT_EPOCH":27689,"BSTAR":0.00011409139,"MEAN_MOTION_DOT":1.418e-5,"MEAN_MOTION_DDOT":0},{"OBJECT_NAME":"FENGYUN 1C DEB","OBJECT_ID":"1999-025JS","EPOCH":"2026-03-09T09:31:11.592480","MEAN_MOTION":14.89836418,"ECCENTRICITY":0.01602799,"INCLINATION":99.0124,"RA_OF_ASC_NODE":19.279,"ARG_OF_PERICENTER":316.4187,"MEAN_ANOMALY":42.4455,"EPHEMERIS_TYPE":0,"CLASSIFICATION_TYPE":"U","NORAD_CAT_ID":29944,"ELEMENT_SET_NO":999,"REV_AT_EPOCH":1743,"BSTAR":0.0013476123,"MEAN_MOTION_DOT":0.00016456,"MEAN_MOTION_DDOT":0}]
